{
  "type": "FeatureCollection",
  "metadata": {
    "generated_utc": "2026-10-04T12:49:38.161075+00:00",
    "method": "HREF QPF / FFG ratio intersected with local flood-prone polygons",
    "duration_hr": 6,
    "period_index": 1,
    "risk_thresholds": {
      "Possible": "qpf/ffg >= 0.75",
      "Probable": "qpf/ffg >= 1.00",
      "Significant": "qpf/ffg >= 1.50"
    },
    "href_layer": {
      "id": "2026100400_max_f06_a06",
      "url": "data/grids/2026100400_max_f06_a06.json.gz",
      "valueGridUrl": "data/value_grids/2026100400_max_f06_a06.json.gz",
      "rasterUrl": "data/rasters/2026100400_max_f06_a06.png",
      "rasterBounds": {
        "south": 24.00002,
        "north": 33.99999,
        "west": -94.99702,
        "east": -83.00002
      },
      "maxPoint": {
        "lat": 28.9563,
        "lon": -88.4851,
        "value": 10.074
      },
      "periodKey": "f06_a06_00_06",
      "periodLabel": "F00-F06 (6-hr Ensemble Max QPF)",
      "stepStart": 0,
      "stepEnd": 6,
      "run": "2026100400",
      "runLabel": "20261004 00Z",
      "product": "max",
      "productLabel": "Ensemble Max",
      "forecastHour": 6,
      "accumHours": 6,
      "units": "inches",
      "startTimeUTC": "2026-10-04T00:00:00+00:00",
      "validTimeUTC": "2026-10-04T06:00:00+00:00",
      "stepRange": "0-6",
      "name": "HREF member-computed Ensemble Max QPF",
      "sourceFile": "4 member APCP slices",
      "maxValue": 10.07,
      "pointCount": 55200,
      "native": false
    }
  },
  "features": []
}