{
  "type": "FeatureCollection",
  "metadata": {
    "generated_utc": "2026-10-05T15:13:21.181000+00:00",
    "method": "HREF QPF / FFG ratio intersected with local flood-prone polygons",
    "duration_hr": 6,
    "period_index": 2,
    "risk_thresholds": {
      "Possible": "qpf/ffg >= 0.75",
      "Probable": "qpf/ffg >= 1.00",
      "Significant": "qpf/ffg >= 1.50"
    },
    "href_layer": {
      "id": "2026100500_max_f12_a06",
      "url": "data/grids/2026100500_max_f12_a06.json.gz",
      "valueGridUrl": "data/value_grids/2026100500_max_f12_a06.json.gz",
      "rasterUrl": "data/rasters/2026100500_max_f12_a06.png",
      "rasterBounds": {
        "south": 24.00002,
        "north": 33.99999,
        "west": -94.99702,
        "east": -83.00002
      },
      "maxPoint": {
        "lat": 29.4367,
        "lon": -86.5816,
        "value": 11.365
      },
      "periodKey": "f12_a06_06_12",
      "periodLabel": "F06-F12 (6-hr Ensemble Max QPF)",
      "stepStart": 6,
      "stepEnd": 12,
      "run": "2026100500",
      "runLabel": "20261005 00Z",
      "product": "max",
      "productLabel": "Ensemble Max",
      "forecastHour": 12,
      "accumHours": 6,
      "units": "inches",
      "startTimeUTC": "2026-10-05T06:00:00+00:00",
      "validTimeUTC": "2026-10-05T12:00:00+00:00",
      "stepRange": "6-12",
      "name": "HREF member-computed Ensemble Max QPF",
      "sourceFile": "4 member APCP slices",
      "maxValue": 11.37,
      "pointCount": 55200,
      "native": false
    }
  },
  "features": []
}