{
  "type": "FeatureCollection",
  "metadata": {
    "generated_utc": "2026-10-03T00:43:35.031983+00:00",
    "method": "HREF QPF / FFG ratio intersected with local flood-prone polygons",
    "duration_hr": 6,
    "period_index": 4,
    "risk_thresholds": {
      "Possible": "qpf/ffg >= 0.75",
      "Probable": "qpf/ffg >= 1.00",
      "Significant": "qpf/ffg >= 1.50"
    },
    "href_layer": {
      "id": "2026100212_max_f24_a06",
      "url": "data/grids/2026100212_max_f24_a06.json.gz",
      "valueGridUrl": "data/value_grids/2026100212_max_f24_a06.json.gz",
      "rasterUrl": "data/rasters/2026100212_max_f24_a06.png",
      "rasterBounds": {
        "south": 24.00002,
        "north": 33.99999,
        "west": -94.99702,
        "east": -83.00002
      },
      "maxPoint": {
        "lat": 27.0131,
        "lon": -84.7783,
        "value": 10.948
      },
      "periodKey": "f24_a06_18_24",
      "periodLabel": "F18-F24 (6-hr Ensemble Max QPF)",
      "stepStart": 18,
      "stepEnd": 24,
      "run": "2026100212",
      "runLabel": "20261002 12Z",
      "product": "max",
      "productLabel": "Ensemble Max",
      "forecastHour": 24,
      "accumHours": 6,
      "units": "inches",
      "startTimeUTC": "2026-10-03T06:00:00+00:00",
      "validTimeUTC": "2026-10-03T12:00:00+00:00",
      "stepRange": "18-24",
      "name": "HREF member-computed Ensemble Max QPF",
      "sourceFile": "8 member APCP slices",
      "maxValue": 10.95,
      "pointCount": 55200,
      "native": false
    }
  },
  "features": []
}