{
  "type": "FeatureCollection",
  "metadata": {
    "generated_utc": "2026-09-27T17:14:53.704554+00:00",
    "method": "HREF QPF / FFG ratio intersected with local flood-prone polygons",
    "duration_hr": 6,
    "period_index": 4,
    "risk_thresholds": {
      "Possible": "qpf/ffg >= 0.75",
      "Probable": "qpf/ffg >= 1.00",
      "Significant": "qpf/ffg >= 1.50"
    },
    "href_layer": {
      "id": "2026092700_max_f24_a06",
      "url": "data/grids/2026092700_max_f24_a06.json.gz",
      "valueGridUrl": "data/value_grids/2026092700_max_f24_a06.json.gz",
      "rasterUrl": "data/rasters/2026092700_max_f24_a06.png",
      "rasterBounds": {
        "south": 24.00002,
        "north": 33.99999,
        "west": -94.99702,
        "east": -83.00002
      },
      "maxPoint": {
        "lat": 26.3363,
        "lon": -90.4888,
        "value": 5.273
      },
      "periodKey": "f24_a06_18_24",
      "periodLabel": "F18-F24 (6-hr Ensemble Max QPF)",
      "stepStart": 18,
      "stepEnd": 24,
      "run": "2026092700",
      "runLabel": "20260927 00Z",
      "product": "max",
      "productLabel": "Ensemble Max",
      "forecastHour": 24,
      "accumHours": 6,
      "units": "inches",
      "startTimeUTC": "2026-09-27T18:00:00+00:00",
      "validTimeUTC": "2026-09-28T00:00:00+00:00",
      "stepRange": "18-24",
      "name": "HREF member-computed Ensemble Max QPF",
      "sourceFile": "6 member APCP slices",
      "maxValue": 5.27,
      "pointCount": 55200,
      "native": false
    }
  },
  "features": []
}