{
  "type": "FeatureCollection",
  "metadata": {
    "generated_utc": "2026-10-04T12:50:14.355440+00:00",
    "method": "HREF QPF / FFG ratio intersected with local flood-prone polygons",
    "duration_hr": 6,
    "period_index": 3,
    "risk_thresholds": {
      "Possible": "qpf/ffg >= 0.75",
      "Probable": "qpf/ffg >= 1.00",
      "Significant": "qpf/ffg >= 1.50"
    },
    "href_layer": {
      "id": "2026100400_max_f18_a06",
      "url": "data/grids/2026100400_max_f18_a06.json.gz",
      "valueGridUrl": "data/value_grids/2026100400_max_f18_a06.json.gz",
      "rasterUrl": "data/rasters/2026100400_max_f18_a06.png",
      "rasterBounds": {
        "south": 24.00002,
        "north": 33.99999,
        "west": -94.99702,
        "east": -83.00002
      },
      "maxPoint": {
        "lat": 29.2183,
        "lon": -90.4387,
        "value": 12.377
      },
      "periodKey": "f18_a06_12_18",
      "periodLabel": "F12-F18 (6-hr Ensemble Max QPF)",
      "stepStart": 12,
      "stepEnd": 18,
      "run": "2026100400",
      "runLabel": "20261004 00Z",
      "product": "max",
      "productLabel": "Ensemble Max",
      "forecastHour": 18,
      "accumHours": 6,
      "units": "inches",
      "startTimeUTC": "2026-10-04T12:00:00+00:00",
      "validTimeUTC": "2026-10-04T18:00:00+00:00",
      "stepRange": "12-18",
      "name": "HREF member-computed Ensemble Max QPF",
      "sourceFile": "4 member APCP slices",
      "maxValue": 12.38,
      "pointCount": 55200,
      "native": false
    }
  },
  "features": []
}