{
  "type": "FeatureCollection",
  "metadata": {
    "generated_utc": "2026-05-25T22:40:26.135657+00:00",
    "method": "HREF QPF / FFG ratio intersected with local flood-prone polygons",
    "duration_hr": 6,
    "period_index": 1,
    "risk_thresholds": {
      "Possible": "qpf/ffg >= 0.75",
      "Probable": "qpf/ffg >= 1.00",
      "Significant": "qpf/ffg >= 1.50"
    },
    "href_layer": {
      "id": "2026052512_max_f06_a06",
      "url": "data/grids/2026052512_max_f06_a06.json.gz",
      "valueGridUrl": "data/value_grids/2026052512_max_f06_a06.json.gz",
      "rasterUrl": "data/rasters/2026052512_max_f06_a06.png",
      "rasterBounds": {
        "south": 24.00002,
        "north": 33.99999,
        "west": -94.99702,
        "east": -83.00002
      },
      "maxPoint": {
        "lat": 29.5459,
        "lon": -90.063,
        "value": 11.631
      },
      "periodKey": "f06_a06_00_06",
      "periodLabel": "F00-F06 (6-hr Ensemble Max QPF)",
      "stepStart": 0,
      "stepEnd": 6,
      "run": "2026052512",
      "runLabel": "20260525 12Z",
      "product": "max",
      "productLabel": "Ensemble Max",
      "forecastHour": 6,
      "accumHours": 6,
      "units": "inches",
      "startTimeUTC": "2026-05-25T12:00:00+00:00",
      "validTimeUTC": "2026-05-25T18:00:00+00:00",
      "stepRange": "0-6",
      "name": "HREF member-computed Ensemble Max QPF",
      "sourceFile": "8 member APCP slices",
      "maxValue": 11.63,
      "pointCount": 55200,
      "native": false
    }
  },
  "features": [
    {
      "type": "Feature",
      "properties": {
        "category": "Possible",
        "color": "#facc15",
        "max_qpf_in": 4.478,
        "min_ffg_in": 3.5,
        "max_qpf_ffg_ratio": 0.995,
        "cell_count": 440,
        "href_layer_id": "2026052512_max_f06_a06",
        "href_period": "F00-F06 (6-hr Ensemble Max QPF)",
        "href_run": "20260525 12Z",
        "valid_time_utc": "2026-05-25T18:00:00+00:00",
        "part": 1
      },
      "geometry": {
        "type": "Polygon",
        "coordinates": [
          [
            [
              -90.08574812500001,
              29.800656192810454
            ],
            [
              -90.0919965625,
              29.800656192810454
            ],
            [
              -90.09199656250001,
              29.800656192810454
            ],
            [
              -90.098245,
              29.800656192810454
            ],
            [
              -90.098245,
              29.80610279956427
            ],
            [
              -90.098245,
              29.811549406318083
            ],
            [
              -90.09199656250001,
              29.811549406318083
            ],
            [
              -90.09199656250001,
              29.816996013071893
            ],
            [
              -90.09199656250001,
              29.822442619825708
            ],
            [
              -90.08574812500001,
              29.822442619825708
            ],
            [
              -90.08574812500001,
              29.82788922657952
            ],
            [
              -90.08574812500001,
              29.83333583333333
            ],
            [
              -90.08574812500001,
              29.833335833333333
            ],
            [
              -90.08574812500001,
              29.838782440087144
            ],
            [
              -90.08574812500001,
              29.844229046840958
            ],
            [
              -90.0794996875,
              29.844229046840958
            ],
            [
              -90.0794996875,
              29.84967565359477
            ],
            [
              -90.0794996875,
              29.855122260348583
            ],
            [
              -90.07325125000001,
              29.855122260348583
            ],
            [
              -90.07325125000001,
              29.860568867102394
            ],
            [
              -90.06700281250001,
              29.860568867102394
            ],
            [
              -90.06700281250001,
              29.86601547385621
            ],
            [
              -90.06075437500002,
              29.86601547385621
            ],
            [
              -90.06075437500002,
              29.87146208061002
            ],
            [
              -90.05450593750001,
              29.87146208061002
            ],
            [
              -90.05450593750001,
              29.876908687363834
            ],
            [
              -90.0482575,
              29.876908687363834
            ],
            [
              -90.04200906250001,
              29.876908687363834
            ],
            [
              -90.04200906250001,
              29.882355294117644
            ],
            [
              -90.03576062500001,
              29.882355294117644
            ],
            [
              -90.0295121875,
              29.882355294117644
            ],
            [
              -90.02326375000001,
              29.882355294117644
            ],
            [
              -90.02326375,
              29.882355294117644
            ],
            [
              -90.0170153125,
              29.882355294117644
            ],
            [
              -90.0170153125,
              29.88780190087146
            ],
            [
              -90.01076687500002,
              29.88780190087146
            ],
            [
              -90.010766875,
              29.88780190087146
            ],
            [
              -90.00451843750001,
              29.88780190087146
            ],
            [
              -89.99827,
              29.88780190087146
            ],
            [
              -89.99202156250001,
              29.88780190087146
            ],
            [
              -89.9920215625,
              29.88780190087146
            ],
            [
              -89.98577312500001,
              29.88780190087146
            ],
            [
              -89.9795246875,
              29.88780190087146
            ],
            [
              -89.97327625000001,
              29.88780190087146
            ],
            [
              -89.97327625,
              29.88780190087146
            ],
            [
              -89.9670278125,
              29.88780190087146
            ],
            [
              -89.960779375,
              29.88780190087146
            ],
            [
              -89.960779375,
              29.882355294117644
            ],
            [
              -89.95453093750001,
              29.882355294117644
            ],
            [
              -89.9482825,
              29.882355294117644
            ],
            [
              -89.9482825,
              29.876908687363834
            ],
            [
              -89.9482825,
              29.87690868736383
            ],
            [
              -89.9482825,
              29.87146208061002
            ],
            [
              -89.9420340625,
              29.87146208061002
            ],
            [
              -89.9420340625,
              29.86601547385621
            ],
            [
              -89.9420340625,
              29.866015473856205
            ],
            [
              -89.9420340625,
              29.860568867102394
            ],
            [
              -89.9420340625,
              29.855122260348583
            ],
            [
              -89.9420340625,
              29.85512226034858
            ],
            [
              -89.9420340625,
              29.84967565359477
            ],
            [
              -89.9482825,
              29.84967565359477
            ],
            [
              -89.95453093750001,
              29.84967565359477
            ],
            [
              -89.960779375,
              29.84967565359477
            ],
            [
              -89.96077937500002,
              29.84967565359477
            ],
            [
              -89.9670278125,
              29.84967565359477
            ],
            [
              -89.97327625,
              29.84967565359477
            ],
            [
              -89.97327625000001,
              29.84967565359477
            ],
            [
              -89.9795246875,
              29.84967565359477
            ],
            [
              -89.98577312500001,
              29.84967565359477
            ],
            [
              -89.9920215625,
              29.84967565359477
            ],
            [
              -89.99202156250001,
              29.84967565359477
            ],
            [
              -89.99827,
              29.84967565359477
            ],
            [
              -89.99827,
              29.844229046840958
            ],
            [
              -89.99827,
              29.844229046840955
            ],
            [
              -89.99827,
              29.838782440087144
            ],
            [
              -89.99827,
              29.83333583333333
            ],
            [
              -90.00451843750001,
              29.83333583333333
            ],
            [
              -90.010766875,
              29.83333583333333
            ],
            [
              -90.01076687500002,
              29.83333583333333
            ],
            [
              -90.0170153125,
              29.83333583333333
            ],
            [
              -90.02326375,
              29.83333583333333
            ],
            [
              -90.02326375000001,
              29.83333583333333
            ],
            [
              -90.0295121875,
              29.83333583333333
            ],
            [
              -90.03576062500001,
              29.83333583333333
            ],
            [
              -90.0420090625,
              29.83333583333333
            ],
            [
              -90.0420090625,
              29.82788922657952
            ],
            [
              -90.0482575,
              29.82788922657952
            ],
            [
              -90.0482575,
              29.822442619825704
            ],
            [
              -90.05450593750001,
              29.822442619825704
            ],
            [
              -90.05450593750001,
              29.816996013071893
            ],
            [
              -90.060754375,
              29.816996013071893
            ],
            [
              -90.060754375,
              29.811549406318083
            ],
            [
              -90.060754375,
              29.81154940631808
            ],
            [
              -90.060754375,
              29.80610279956427
            ],
            [
              -90.060754375,
              29.800656192810454
            ],
            [
              -90.06700281250001,
              29.800656192810454
            ],
            [
              -90.07325125,
              29.800656192810454
            ],
            [
              -90.07325125000001,
              29.800656192810454
            ],
            [
              -90.0794996875,
              29.800656192810454
            ],
            [
              -90.08574812500001,
              29.800656192810454
            ]
          ]
        ]
      }
    },
    {
      "type": "Feature",
      "properties": {
        "category": "Possible",
        "color": "#facc15",
        "max_qpf_in": 4.478,
        "min_ffg_in": 3.5,
        "max_qpf_ffg_ratio": 0.995,
        "cell_count": 440,
        "href_layer_id": "2026052512_max_f06_a06",
        "href_period": "F00-F06 (6-hr Ensemble Max QPF)",
        "href_run": "20260525 12Z",
        "valid_time_utc": "2026-05-25T18:00:00+00:00",
        "part": 2
      },
      "geometry": {
        "type": "Polygon",
        "coordinates": [
          [
            [
              -89.39217156250001,
              30.252724553376904
            ],
            [
              -89.39217156250001,
              30.25817116013072
            ],
            [
              -89.385923125,
              30.25817116013072
            ],
            [
              -89.385923125,
              30.26361776688453
            ],
            [
              -89.385923125,
              30.269064373638344
            ],
            [
              -89.37967468750001,
              30.269064373638344
            ],
            [
              -89.37967468750001,
              30.274510980392154
            ],
            [
              -89.37967468750001,
              30.27995758714597
            ],
            [
              -89.37342625000001,
              30.27995758714597
            ],
            [
              -89.37342625000001,
              30.28540419389978
            ],
            [
              -89.37342625000001,
              30.29085080065359
            ],
            [
              -89.37342625000001,
              30.290850800653594
            ],
            [
              -89.37342625000001,
              30.296297407407405
            ],
            [
              -89.3671778125,
              30.296297407407405
            ],
            [
              -89.3671778125,
              30.301744014161216
            ],
            [
              -89.3671778125,
              30.30174401416122
            ],
            [
              -89.3671778125,
              30.30719062091503
            ],
            [
              -89.36092937500001,
              30.30719062091503
            ],
            [
              -89.36092937500001,
              30.31263722766884
            ],
            [
              -89.36092937500001,
              30.312637227668844
            ],
            [
              -89.36092937500001,
              30.318083834422655
            ],
            [
              -89.3546809375,
              30.318083834422655
            ],
            [
              -89.3546809375,
              30.323530441176466
            ],
            [
              -89.3546809375,
              30.32353044117647
            ],
            [
              -89.3546809375,
              30.32897704793028
            ],
            [
              -89.34843250000002,
              30.32897704793028
            ],
            [
              -89.34843250000002,
              30.33442365468409
            ],
            [
              -89.34843250000002,
              30.334423654684095
            ],
            [
              -89.34843250000002,
              30.339870261437905
            ],
            [
              -89.34218406250001,
              30.339870261437905
            ],
            [
              -89.34218406250001,
              30.345316868191716
            ],
            [
              -89.34218406250001,
              30.34531686819172
            ],
            [
              -89.34218406250001,
              30.35076347494553
            ],
            [
              -89.335935625,
              30.35076347494553
            ],
            [
              -89.3296871875,
              30.35076347494553
            ],
            [
              -89.3296871875,
              30.34531686819172
            ],
            [
              -89.3296871875,
              30.345316868191716
            ],
            [
              -89.3296871875,
              30.339870261437905
            ],
            [
              -89.3296871875,
              30.334423654684095
            ],
            [
              -89.3296871875,
              30.33442365468409
            ],
            [
              -89.3296871875,
              30.32897704793028
            ],
            [
              -89.3296871875,
              30.32353044117647
            ],
            [
              -89.3296871875,
              30.323530441176466
            ],
            [
              -89.3296871875,
              30.318083834422655
            ],
            [
              -89.335935625,
              30.318083834422655
            ],
            [
              -89.335935625,
              30.312637227668844
            ],
            [
              -89.335935625,
              30.31263722766884
            ],
            [
              -89.335935625,
              30.30719062091503
            ],
            [
              -89.34218406250001,
              30.30719062091503
            ],
            [
              -89.34218406250001,
              30.30174401416122
            ],
            [
              -89.34218406250001,
              30.301744014161216
            ],
            [
              -89.34218406250001,
              30.296297407407405
            ],
            [
              -89.3484325,
              30.296297407407405
            ],
            [
              -89.3484325,
              30.29085080065359
            ],
            [
              -89.3546809375,
              30.29085080065359
            ],
            [
              -89.3546809375,
              30.28540419389978
            ],
            [
              -89.360929375,
              30.28540419389978
            ],
            [
              -89.360929375,
              30.27995758714597
            ],
            [
              -89.360929375,
              30.279957587145965
            ],
            [
              -89.360929375,
              30.274510980392154
            ],
            [
              -89.360929375,
              30.26906437363834
            ],
            [
              -89.3671778125,
              30.26906437363834
            ],
            [
              -89.3671778125,
              30.26361776688453
            ],
            [
              -89.3671778125,
              30.25817116013072
            ],
            [
              -89.3671778125,
              30.258171160130715
            ],
            [
              -89.3671778125,
              30.252724553376904
            ],
            [
              -89.37342625000001,
              30.252724553376904
            ],
            [
              -89.37342625000001,
              30.24727794662309
            ],
            [
              -89.3796746875,
              30.24727794662309
            ],
            [
              -89.37967468750001,
              30.24727794662309
            ],
            [
              -89.385923125,
              30.24727794662309
            ],
            [
              -89.39217156250001,
              30.24727794662309
            ],
            [
              -89.39217156250001,
              30.252724553376904
            ]
          ]
        ]
      }
    },
    {
      "type": "Feature",
      "properties": {
        "category": "Possible",
        "color": "#facc15",
        "max_qpf_in": 4.478,
        "min_ffg_in": 3.5,
        "max_qpf_ffg_ratio": 0.995,
        "cell_count": 440,
        "href_layer_id": "2026052512_max_f06_a06",
        "href_period": "F00-F06 (6-hr Ensemble Max QPF)",
        "href_run": "20260525 12Z",
        "valid_time_utc": "2026-05-25T18:00:00+00:00",
        "part": 3
      },
      "geometry": {
        "type": "Polygon",
        "coordinates": [
          [
            [
              -89.24845750000001,
              30.546841318082784
            ],
            [
              -89.24845750000001,
              30.546841318082787
            ],
            [
              -89.24845750000001,
              30.552287924836598
            ],
            [
              -89.24220906250001,
              30.552287924836598
            ],
            [
              -89.235960625,
              30.552287924836598
            ],
            [
              -89.22971218750001,
              30.552287924836598
            ],
            [
              -89.2297121875,
              30.552287924836598
            ],
            [
              -89.22346375000001,
              30.552287924836598
            ],
            [
              -89.2172153125,
              30.552287924836598
            ],
            [
              -89.210966875,
              30.552287924836598
            ],
            [
              -89.210966875,
              30.546841318082784
            ],
            [
              -89.2172153125,
              30.546841318082784
            ],
            [
              -89.22346375000001,
              30.546841318082784
            ],
            [
              -89.22346375000001,
              30.541394711328973
            ],
            [
              -89.2297121875,
              30.541394711328973
            ],
            [
              -89.2297121875,
              30.53594810457516
            ],
            [
              -89.235960625,
              30.53594810457516
            ],
            [
              -89.235960625,
              30.530501497821348
            ],
            [
              -89.24220906250001,
              30.530501497821348
            ],
            [
              -89.24845750000001,
              30.530501497821348
            ],
            [
              -89.24845750000001,
              30.53594810457516
            ],
            [
              -89.24845750000001,
              30.535948104575162
            ],
            [
              -89.24845750000001,
              30.541394711328973
            ],
            [
              -89.24845750000001,
              30.546841318082784
            ]
          ]
        ]
      }
    },
    {
      "type": "Feature",
      "properties": {
        "category": "Possible",
        "color": "#facc15",
        "max_qpf_in": 4.478,
        "min_ffg_in": 3.5,
        "max_qpf_ffg_ratio": 0.995,
        "cell_count": 440,
        "href_layer_id": "2026052512_max_f06_a06",
        "href_period": "F00-F06 (6-hr Ensemble Max QPF)",
        "href_run": "20260525 12Z",
        "valid_time_utc": "2026-05-25T18:00:00+00:00",
        "part": 4
      },
      "geometry": {
        "type": "Polygon",
        "coordinates": [
          [
            [
              -89.19847000000001,
              30.60130738562091
            ],
            [
              -89.19847000000001,
              30.601307385620913
            ],
            [
              -89.19847000000001,
              30.606753992374724
            ],
            [
              -89.19847000000001,
              30.61220059912854
            ],
            [
              -89.19847000000001,
              30.61764720588235
            ],
            [
              -89.19847000000001,
              30.617647205882353
            ],
            [
              -89.19847000000001,
              30.623093812636164
            ],
            [
              -89.19847000000001,
              30.628540419389974
            ],
            [
              -89.19847000000001,
              30.628540419389978
            ],
            [
              -89.19847000000001,
              30.63398702614379
            ],
            [
              -89.19847000000001,
              30.6394336328976
            ],
            [
              -89.19847000000001,
              30.639433632897603
            ],
            [
              -89.19847000000001,
              30.644880239651414
            ],
            [
              -89.19847000000001,
              30.650326846405225
            ],
            [
              -89.19847000000001,
              30.65032684640523
            ],
            [
              -89.19847000000001,
              30.65577345315904
            ],
            [
              -89.19847000000001,
              30.661220059912853
            ],
            [
              -89.19222156250001,
              30.661220059912853
            ],
            [
              -89.19222156250001,
              30.666666666666664
            ],
            [
              -89.19222156250001,
              30.672113273420475
            ],
            [
              -89.19222156250001,
              30.67211327342048
            ],
            [
              -89.19222156250001,
              30.67755988017429
            ],
            [
              -89.19222156250001,
              30.6830064869281
            ],
            [
              -89.19222156250001,
              30.683006486928104
            ],
            [
              -89.19222156250001,
              30.688453093681915
            ],
            [
              -89.19222156250001,
              30.693899700435725
            ],
            [
              -89.19222156250001,
              30.69389970043573
            ],
            [
              -89.19222156250001,
              30.69934630718954
            ],
            [
              -89.185973125,
              30.69934630718954
            ],
            [
              -89.17972468750001,
              30.69934630718954
            ],
            [
              -89.1797246875,
              30.69934630718954
            ],
            [
              -89.17347625000001,
              30.69934630718954
            ],
            [
              -89.16722781250002,
              30.69934630718954
            ],
            [
              -89.1672278125,
              30.69934630718954
            ],
            [
              -89.16097937500001,
              30.69934630718954
            ],
            [
              -89.1547309375,
              30.69934630718954
            ],
            [
              -89.14848250000001,
              30.69934630718954
            ],
            [
              -89.1484825,
              30.69934630718954
            ],
            [
              -89.14223406250001,
              30.69934630718954
            ],
            [
              -89.14223406250001,
              30.69389970043573
            ],
            [
              -89.14223406250001,
              30.693899700435725
            ],
            [
              -89.14223406250001,
              30.688453093681915
            ],
            [
              -89.14223406250001,
              30.683006486928104
            ],
            [
              -89.14223406250001,
              30.6830064869281
            ],
            [
              -89.14223406250001,
              30.67755988017429
            ],
            [
              -89.14223406250001,
              30.67211327342048
            ],
            [
              -89.14223406250001,
              30.672113273420475
            ],
            [
              -89.14223406250001,
              30.666666666666664
            ],
            [
              -89.14223406250001,
              30.661220059912853
            ],
            [
              -89.14223406250001,
              30.66122005991285
            ],
            [
              -89.14223406250001,
              30.65577345315904
            ],
            [
              -89.14223406250001,
              30.65032684640523
            ],
            [
              -89.135985625,
              30.65032684640523
            ],
            [
              -89.135985625,
              30.644880239651414
            ],
            [
              -89.135985625,
              30.639433632897603
            ],
            [
              -89.135985625,
              30.6394336328976
            ],
            [
              -89.135985625,
              30.63398702614379
            ],
            [
              -89.14223406250001,
              30.63398702614379
            ],
            [
              -89.14223406250001,
              30.628540419389978
            ],
            [
              -89.14223406250001,
              30.628540419389974
            ],
            [
              -89.14223406250001,
              30.623093812636164
            ],
            [
              -89.14223406250001,
              30.61764720588235
            ],
            [
              -89.1484825,
              30.61764720588235
            ],
            [
              -89.1484825,
              30.61220059912854
            ],
            [
              -89.1547309375,
              30.61220059912854
            ],
            [
              -89.1547309375,
              30.606753992374724
            ],
            [
              -89.16097937500001,
              30.606753992374724
            ],
            [
              -89.16097937500001,
              30.60130738562091
            ],
            [
              -89.1672278125,
              30.60130738562091
            ],
            [
              -89.1672278125,
              30.5958607788671
            ],
            [
              -89.17347625000001,
              30.5958607788671
            ],
            [
              -89.17347625000001,
              30.590414172113288
            ],
            [
              -89.1797246875,
              30.590414172113288
            ],
            [
              -89.17972468750001,
              30.590414172113288
            ],
            [
              -89.185973125,
              30.590414172113288
            ],
            [
              -89.19222156250001,
              30.590414172113288
            ],
            [
              -89.19222156250001,
              30.584967565359474
            ],
            [
              -89.19222156250001,
              30.57952095860566
            ],
            [
              -89.19847000000001,
              30.57952095860566
            ],
            [
              -89.19847000000001,
              30.584967565359474
            ],
            [
              -89.19847000000001,
              30.590414172113288
            ],
            [
              -89.19847000000001,
              30.5958607788671
            ],
            [
              -89.19847000000001,
              30.595860778867102
            ],
            [
              -89.19847000000001,
              30.60130738562091
            ]
          ]
        ]
      }
    },
    {
      "type": "Feature",
      "properties": {
        "category": "Probable",
        "color": "#f97316",
        "max_qpf_in": 5.247,
        "min_ffg_in": 3.5,
        "max_qpf_ffg_ratio": 1.499,
        "cell_count": 242,
        "href_layer_id": "2026052512_max_f06_a06",
        "href_period": "F00-F06 (6-hr Ensemble Max QPF)",
        "href_run": "20260525 12Z",
        "valid_time_utc": "2026-05-25T18:00:00+00:00",
        "part": 1
      },
      "geometry": {
        "type": "Polygon",
        "coordinates": [
          [
            [
              -90.06075437500002,
              29.816996013071893
            ],
            [
              -90.05450593750001,
              29.816996013071893
            ],
            [
              -90.05450593750001,
              29.822442619825708
            ],
            [
              -90.0482575,
              29.822442619825708
            ],
            [
              -90.0482575,
              29.82788922657952
            ],
            [
              -90.04200906250001,
              29.82788922657952
            ],
            [
              -90.04200906250001,
              29.833335833333333
            ],
            [
              -90.03576062500001,
              29.833335833333333
            ],
            [
              -90.0295121875,
              29.833335833333333
            ],
            [
              -90.02326375000001,
              29.833335833333333
            ],
            [
              -90.02326375,
              29.833335833333333
            ],
            [
              -90.0170153125,
              29.833335833333333
            ],
            [
              -90.01076687500002,
              29.833335833333333
            ],
            [
              -90.010766875,
              29.833335833333333
            ],
            [
              -90.00451843750001,
              29.833335833333333
            ],
            [
              -89.99827,
              29.833335833333333
            ],
            [
              -89.99827,
              29.82788922657952
            ],
            [
              -89.99827,
              29.822442619825708
            ],
            [
              -89.99827,
              29.822442619825704
            ],
            [
              -89.99827,
              29.816996013071893
            ],
            [
              -89.99827,
              29.811549406318083
            ],
            [
              -89.99827,
              29.81154940631808
            ],
            [
              -89.99827,
              29.80610279956427
            ],
            [
              -89.99827,
              29.800656192810454
            ],
            [
              -90.00451843750001,
              29.800656192810454
            ],
            [
              -90.010766875,
              29.800656192810454
            ],
            [
              -90.01076687500002,
              29.800656192810454
            ],
            [
              -90.0170153125,
              29.800656192810454
            ],
            [
              -90.02326375,
              29.800656192810454
            ],
            [
              -90.02326375000001,
              29.800656192810454
            ],
            [
              -90.0295121875,
              29.800656192810454
            ],
            [
              -90.03576062500001,
              29.800656192810454
            ],
            [
              -90.0420090625,
              29.800656192810454
            ],
            [
              -90.04200906250001,
              29.800656192810454
            ],
            [
              -90.0482575,
              29.800656192810454
            ],
            [
              -90.05450593750001,
              29.800656192810454
            ],
            [
              -90.06075437500002,
              29.800656192810454
            ],
            [
              -90.06075437500002,
              29.80610279956427
            ],
            [
              -90.06075437500002,
              29.81154940631808
            ],
            [
              -90.06075437500002,
              29.811549406318083
            ],
            [
              -90.06075437500002,
              29.816996013071893
            ]
          ]
        ]
      }
    },
    {
      "type": "Feature",
      "properties": {
        "category": "Probable",
        "color": "#f97316",
        "max_qpf_in": 5.247,
        "min_ffg_in": 3.5,
        "max_qpf_ffg_ratio": 1.499,
        "cell_count": 242,
        "href_layer_id": "2026052512_max_f06_a06",
        "href_period": "F00-F06 (6-hr Ensemble Max QPF)",
        "href_run": "20260525 12Z",
        "valid_time_utc": "2026-05-25T18:00:00+00:00",
        "part": 2
      },
      "geometry": {
        "type": "Polygon",
        "coordinates": [
          [
            [
              -89.4484075,
              30.421569362745096
            ],
            [
              -89.4484075,
              30.41612275599128
            ],
            [
              -89.45465593750001,
              30.41612275599128
            ],
            [
              -89.45465593750001,
              30.41067614923747
            ],
            [
              -89.46090437500001,
              30.41067614923747
            ],
            [
              -89.46090437500001,
              30.41612275599128
            ],
            [
              -89.46090437500001,
              30.416122755991285
            ],
            [
              -89.46090437500001,
              30.421569362745096
            ],
            [
              -89.46090437500001,
              30.427015969498907
            ],
            [
              -89.46090437500001,
              30.42701596949891
            ],
            [
              -89.46090437500001,
              30.43246257625272
            ],
            [
              -89.46090437500001,
              30.437909183006532
            ],
            [
              -89.46090437500001,
              30.437909183006536
            ],
            [
              -89.46090437500001,
              30.443355789760346
            ],
            [
              -89.46090437500001,
              30.448802396514157
            ],
            [
              -89.46090437500001,
              30.44880239651416
            ],
            [
              -89.46090437500001,
              30.45424900326797
            ],
            [
              -89.46090437500001,
              30.459695610021786
            ],
            [
              -89.45465593750001,
              30.459695610021786
            ],
            [
              -89.4484075,
              30.459695610021786
            ],
            [
              -89.44215906250001,
              30.459695610021786
            ],
            [
              -89.4421590625,
              30.459695610021786
            ],
            [
              -89.435910625,
              30.459695610021786
            ],
            [
              -89.42966218750001,
              30.459695610021786
            ],
            [
              -89.4296621875,
              30.459695610021786
            ],
            [
              -89.42341375000001,
              30.459695610021786
            ],
            [
              -89.4171653125,
              30.459695610021786
            ],
            [
              -89.41091687500001,
              30.459695610021786
            ],
            [
              -89.410916875,
              30.459695610021786
            ],
            [
              -89.4046684375,
              30.459695610021786
            ],
            [
              -89.39842000000002,
              30.459695610021786
            ],
            [
              -89.39842,
              30.459695610021786
            ],
            [
              -89.39217156250001,
              30.459695610021786
            ],
            [
              -89.385923125,
              30.459695610021786
            ],
            [
              -89.37967468750001,
              30.459695610021786
            ],
            [
              -89.3796746875,
              30.459695610021786
            ],
            [
              -89.37342625000001,
              30.459695610021786
            ],
            [
              -89.3671778125,
              30.459695610021786
            ],
            [
              -89.36092937500001,
              30.459695610021786
            ],
            [
              -89.360929375,
              30.459695610021786
            ],
            [
              -89.3546809375,
              30.459695610021786
            ],
            [
              -89.3484325,
              30.459695610021786
            ],
            [
              -89.3484325,
              30.45424900326797
            ],
            [
              -89.3484325,
              30.448802396514157
            ],
            [
              -89.3546809375,
              30.448802396514157
            ],
            [
              -89.360929375,
              30.448802396514157
            ],
            [
              -89.36092937500001,
              30.448802396514157
            ],
            [
              -89.3671778125,
              30.448802396514157
            ],
            [
              -89.37342625000001,
              30.448802396514157
            ],
            [
              -89.3796746875,
              30.448802396514157
            ],
            [
              -89.37967468750001,
              30.448802396514157
            ],
            [
              -89.385923125,
              30.448802396514157
            ],
            [
              -89.39217156250001,
              30.448802396514157
            ],
            [
              -89.39842,
              30.448802396514157
            ],
            [
              -89.39842,
              30.443355789760346
            ],
            [
              -89.39842,
              30.437909183006536
            ],
            [
              -89.39842,
              30.437909183006532
            ],
            [
              -89.39842,
              30.43246257625272
            ],
            [
              -89.39842,
              30.42701596949891
            ],
            [
              -89.39842,
              30.427015969498907
            ],
            [
              -89.39842,
              30.421569362745096
            ],
            [
              -89.39842,
              30.416122755991285
            ],
            [
              -89.39842,
              30.41612275599128
            ],
            [
              -89.39842,
              30.41067614923747
            ],
            [
              -89.39842,
              30.405229542483657
            ],
            [
              -89.4046684375,
              30.405229542483657
            ],
            [
              -89.4046684375,
              30.41067614923747
            ],
            [
              -89.4046684375,
              30.41612275599128
            ],
            [
              -89.4046684375,
              30.416122755991285
            ],
            [
              -89.4046684375,
              30.421569362745096
            ],
            [
              -89.410916875,
              30.421569362745096
            ],
            [
              -89.41091687500001,
              30.421569362745096
            ],
            [
              -89.4171653125,
              30.421569362745096
            ],
            [
              -89.4171653125,
              30.427015969498907
            ],
            [
              -89.42341375000001,
              30.427015969498907
            ],
            [
              -89.42966218750001,
              30.427015969498907
            ],
            [
              -89.42966218750001,
              30.43246257625272
            ],
            [
              -89.435910625,
              30.43246257625272
            ],
            [
              -89.435910625,
              30.427015969498907
            ],
            [
              -89.4421590625,
              30.427015969498907
            ],
            [
              -89.4421590625,
              30.421569362745096
            ],
            [
              -89.4484075,
              30.421569362745096
            ]
          ]
        ]
      }
    },
    {
      "type": "Feature",
      "properties": {
        "category": "Probable",
        "color": "#f97316",
        "max_qpf_in": 5.247,
        "min_ffg_in": 3.5,
        "max_qpf_ffg_ratio": 1.499,
        "cell_count": 242,
        "href_layer_id": "2026052512_max_f06_a06",
        "href_period": "F00-F06 (6-hr Ensemble Max QPF)",
        "href_run": "20260525 12Z",
        "valid_time_utc": "2026-05-25T18:00:00+00:00",
        "part": 3
      },
      "geometry": {
        "type": "Polygon",
        "coordinates": [
          [
            [
              -89.39842000000002,
              30.26906437363834
            ],
            [
              -89.39842000000002,
              30.269064373638344
            ],
            [
              -89.39842000000002,
              30.274510980392154
            ],
            [
              -89.39842000000002,
              30.279957587145965
            ],
            [
              -89.39842000000002,
              30.27995758714597
            ],
            [
              -89.39842000000002,
              30.28540419389978
            ],
            [
              -89.39842000000002,
              30.29085080065359
            ],
            [
              -89.39842000000002,
              30.290850800653594
            ],
            [
              -89.39842000000002,
              30.296297407407405
            ],
            [
              -89.39842000000002,
              30.301744014161216
            ],
            [
              -89.39842000000002,
              30.30174401416122
            ],
            [
              -89.39842000000002,
              30.30719062091503
            ],
            [
              -89.39842000000002,
              30.31263722766884
            ],
            [
              -89.39842000000002,
              30.312637227668844
            ],
            [
              -89.39842000000002,
              30.318083834422655
            ],
            [
              -89.39842000000002,
              30.323530441176466
            ],
            [
              -89.39842000000002,
              30.32353044117647
            ],
            [
              -89.39842000000002,
              30.32897704793028
            ],
            [
              -89.39842000000002,
              30.33442365468409
            ],
            [
              -89.39842000000002,
              30.334423654684095
            ],
            [
              -89.39842000000002,
              30.339870261437905
            ],
            [
              -89.39842000000002,
              30.345316868191716
            ],
            [
              -89.39842000000002,
              30.34531686819172
            ],
            [
              -89.39842000000002,
              30.35076347494553
            ],
            [
              -89.39217156250001,
              30.35076347494553
            ],
            [
              -89.385923125,
              30.35076347494553
            ],
            [
              -89.37967468750001,
              30.35076347494553
            ],
            [
              -89.3796746875,
              30.35076347494553
            ],
            [
              -89.37342625000001,
              30.35076347494553
            ],
            [
              -89.3671778125,
              30.35076347494553
            ],
            [
              -89.36092937500001,
              30.35076347494553
            ],
            [
              -89.360929375,
              30.35076347494553
            ],
            [
              -89.3546809375,
              30.35076347494553
            ],
            [
              -89.34843250000002,
              30.35076347494553
            ],
            [
              -89.3484325,
              30.35076347494553
            ],
            [
              -89.34218406250001,
              30.35076347494553
            ],
            [
              -89.34218406250001,
              30.34531686819172
            ],
            [
              -89.34218406250001,
              30.345316868191716
            ],
            [
              -89.34218406250001,
              30.339870261437905
            ],
            [
              -89.3484325,
              30.339870261437905
            ],
            [
              -89.3484325,
              30.334423654684095
            ],
            [
              -89.3484325,
              30.33442365468409
            ],
            [
              -89.3484325,
              30.32897704793028
            ],
            [
              -89.3546809375,
              30.32897704793028
            ],
            [
              -89.3546809375,
              30.32353044117647
            ],
            [
              -89.3546809375,
              30.323530441176466
            ],
            [
              -89.3546809375,
              30.318083834422655
            ],
            [
              -89.360929375,
              30.318083834422655
            ],
            [
              -89.360929375,
              30.312637227668844
            ],
            [
              -89.360929375,
              30.31263722766884
            ],
            [
              -89.360929375,
              30.30719062091503
            ],
            [
              -89.3671778125,
              30.30719062091503
            ],
            [
              -89.3671778125,
              30.30174401416122
            ],
            [
              -89.3671778125,
              30.301744014161216
            ],
            [
              -89.3671778125,
              30.296297407407405
            ],
            [
              -89.37342625000001,
              30.296297407407405
            ],
            [
              -89.37342625000001,
              30.290850800653594
            ],
            [
              -89.37342625000001,
              30.29085080065359
            ],
            [
              -89.37342625000001,
              30.28540419389978
            ],
            [
              -89.37342625000001,
              30.279957587145965
            ],
            [
              -89.3796746875,
              30.279957587145965
            ],
            [
              -89.3796746875,
              30.274510980392154
            ],
            [
              -89.3796746875,
              30.26906437363834
            ],
            [
              -89.385923125,
              30.26906437363834
            ],
            [
              -89.385923125,
              30.26361776688453
            ],
            [
              -89.385923125,
              30.258171160130715
            ],
            [
              -89.39217156250001,
              30.258171160130715
            ],
            [
              -89.39217156250001,
              30.252724553376904
            ],
            [
              -89.39217156250001,
              30.24727794662309
            ],
            [
              -89.39842000000002,
              30.24727794662309
            ],
            [
              -89.39842000000002,
              30.252724553376904
            ],
            [
              -89.39842000000002,
              30.258171160130715
            ],
            [
              -89.39842000000002,
              30.25817116013072
            ],
            [
              -89.39842000000002,
              30.26361776688453
            ],
            [
              -89.39842000000002,
              30.26906437363834
            ]
          ]
        ]
      }
    },
    {
      "type": "Feature",
      "properties": {
        "category": "Probable",
        "color": "#f97316",
        "max_qpf_in": 5.247,
        "min_ffg_in": 3.5,
        "max_qpf_ffg_ratio": 1.499,
        "cell_count": 242,
        "href_layer_id": "2026052512_max_f06_a06",
        "href_period": "F00-F06 (6-hr Ensemble Max QPF)",
        "href_run": "20260525 12Z",
        "valid_time_utc": "2026-05-25T18:00:00+00:00",
        "part": 4
      },
      "geometry": {
        "type": "Polygon",
        "coordinates": [
          [
            [
              -89.19847000000001,
              30.6830064869281
            ],
            [
              -89.19847000000001,
              30.683006486928104
            ],
            [
              -89.19847000000001,
              30.688453093681915
            ],
            [
              -89.19847000000001,
              30.693899700435725
            ],
            [
              -89.19847000000001,
              30.69389970043573
            ],
            [
              -89.19847000000001,
              30.69934630718954
            ],
            [
              -89.19222156250001,
              30.69934630718954
            ],
            [
              -89.19222156250001,
              30.69389970043573
            ],
            [
              -89.19222156250001,
              30.693899700435725
            ],
            [
              -89.19222156250001,
              30.688453093681915
            ],
            [
              -89.19222156250001,
              30.683006486928104
            ],
            [
              -89.19222156250001,
              30.6830064869281
            ],
            [
              -89.19222156250001,
              30.67755988017429
            ],
            [
              -89.19222156250001,
              30.67211327342048
            ],
            [
              -89.19222156250001,
              30.672113273420475
            ],
            [
              -89.19222156250001,
              30.666666666666664
            ],
            [
              -89.19222156250001,
              30.66122005991285
            ],
            [
              -89.19847000000001,
              30.66122005991285
            ],
            [
              -89.19847000000001,
              30.666666666666664
            ],
            [
              -89.19847000000001,
              30.672113273420475
            ],
            [
              -89.19847000000001,
              30.67211327342048
            ],
            [
              -89.19847000000001,
              30.67755988017429
            ],
            [
              -89.19847000000001,
              30.6830064869281
            ]
          ]
        ]
      }
    },
    {
      "type": "Feature",
      "properties": {
        "category": "Significant",
        "color": "#dc2626",
        "max_qpf_in": 6.149,
        "min_ffg_in": 3.5,
        "max_qpf_ffg_ratio": 1.757,
        "cell_count": 129,
        "href_layer_id": "2026052512_max_f06_a06",
        "href_period": "F00-F06 (6-hr Ensemble Max QPF)",
        "href_run": "20260525 12Z",
        "valid_time_utc": "2026-05-25T18:00:00+00:00",
        "part": 1
      },
      "geometry": {
        "type": "Polygon",
        "coordinates": [
          [
            [
              -89.46090437500001,
              30.372549901960785
            ],
            [
              -89.46090437500001,
              30.377996508714592
            ],
            [
              -89.46090437500001,
              30.377996508714595
            ],
            [
              -89.46090437500001,
              30.383443115468406
            ],
            [
              -89.46090437500001,
              30.38888972222222
            ],
            [
              -89.46090437500001,
              30.39433632897603
            ],
            [
              -89.46090437500001,
              30.394336328976035
            ],
            [
              -89.46090437500001,
              30.399782935729842
            ],
            [
              -89.46090437500001,
              30.399782935729846
            ],
            [
              -89.46090437500001,
              30.405229542483657
            ],
            [
              -89.46090437500001,
              30.41067614923747
            ],
            [
              -89.45465593750001,
              30.41067614923747
            ],
            [
              -89.45465593750001,
              30.416122755991285
            ],
            [
              -89.4484075,
              30.416122755991285
            ],
            [
              -89.4484075,
              30.421569362745096
            ],
            [
              -89.44215906250001,
              30.421569362745096
            ],
            [
              -89.44215906250001,
              30.42701596949891
            ],
            [
              -89.435910625,
              30.42701596949891
            ],
            [
              -89.435910625,
              30.43246257625272
            ],
            [
              -89.4296621875,
              30.43246257625272
            ],
            [
              -89.4296621875,
              30.42701596949891
            ],
            [
              -89.42341375000001,
              30.42701596949891
            ],
            [
              -89.4171653125,
              30.42701596949891
            ],
            [
              -89.4171653125,
              30.421569362745096
            ],
            [
              -89.41091687500001,
              30.421569362745096
            ],
            [
              -89.410916875,
              30.421569362745096
            ],
            [
              -89.4046684375,
              30.421569362745096
            ],
            [
              -89.4046684375,
              30.416122755991285
            ],
            [
              -89.4046684375,
              30.41612275599128
            ],
            [
              -89.4046684375,
              30.41067614923747
            ],
            [
              -89.4046684375,
              30.405229542483657
            ],
            [
              -89.39842,
              30.405229542483657
            ],
            [
              -89.39842,
              30.399782935729846
            ],
            [
              -89.39842,
              30.399782935729842
            ],
            [
              -89.39842,
              30.394336328976035
            ],
            [
              -89.39842,
              30.39433632897603
            ],
            [
              -89.39842,
              30.38888972222222
            ],
            [
              -89.39842,
              30.383443115468406
            ],
            [
              -89.39842,
              30.377996508714595
            ],
            [
              -89.39842,
              30.377996508714592
            ],
            [
              -89.39842,
              30.372549901960785
            ],
            [
              -89.39842,
              30.37254990196078
            ],
            [
              -89.39842,
              30.36710329520697
            ],
            [
              -89.39842,
              30.361656688453156
            ],
            [
              -89.39842,
              30.356210081699345
            ],
            [
              -89.39842,
              30.35621008169934
            ],
            [
              -89.39842,
              30.35076347494553
            ],
            [
              -89.4046684375,
              30.35076347494553
            ],
            [
              -89.410916875,
              30.35076347494553
            ],
            [
              -89.41091687500001,
              30.35076347494553
            ],
            [
              -89.4171653125,
              30.35076347494553
            ],
            [
              -89.42341375000001,
              30.35076347494553
            ],
            [
              -89.4296621875,
              30.35076347494553
            ],
            [
              -89.42966218750001,
              30.35076347494553
            ],
            [
              -89.435910625,
              30.35076347494553
            ],
            [
              -89.4421590625,
              30.35076347494553
            ],
            [
              -89.44215906250001,
              30.35076347494553
            ],
            [
              -89.4484075,
              30.35076347494553
            ],
            [
              -89.45465593750001,
              30.35076347494553
            ],
            [
              -89.46090437500001,
              30.35076347494553
            ],
            [
              -89.46090437500001,
              30.35621008169934
            ],
            [
              -89.46090437500001,
              30.356210081699345
            ],
            [
              -89.46090437500001,
              30.361656688453156
            ],
            [
              -89.46090437500001,
              30.36710329520697
            ],
            [
              -89.46090437500001,
              30.37254990196078
            ],
            [
              -89.46090437500001,
              30.372549901960785
            ]
          ]
        ]
      }
    }
  ]
}